{
    "CCSDS_OMM_VERS": "3.0",
    "COMMENT": "GENERATED VIA SPACE-TRACK.ORG API",
    "CREATION_DATE": "2025-11-23T14:26:32",
    "ORIGINATOR": "18 SPCS",
    "OBJECT_NAME": "NAVSTAR 78 (USA 293)",
    "OBJECT_ID": "2019-056A",
    "CENTER_NAME": "EARTH",
    "REF_FRAME": "TEME",
    "TIME_SYSTEM": "UTC",
    "MEAN_ELEMENT_THEORY": "SGP4",
    "EPOCH": "2025-11-23T11:26:29.224896",
    "MEAN_MOTION": "2.00565829",
    "ECCENTRICITY": "0.00577200",
    "INCLINATION": "55.7286",
    "RA_OF_ASC_NODE": "339.3184",
    "ARG_OF_PERICENTER": "198.1122",
    "MEAN_ANOMALY": "333.3115",
    "EPHEMERIS_TYPE": "0",
    "CLASSIFICATION_TYPE": "U",
    "NORAD_CAT_ID": "44506",
    "ELEMENT_SET_NO": "999",
    "REV_AT_EPOCH": "4594",
    "BSTAR": "0.00000000000000",
    "MEAN_MOTION_DOT": "-0.00000067",
    "MEAN_MOTION_DDOT": "0.0000000000000",
    "SEMIMAJOR_AXIS": "26560.151",
    "PERIOD": "717.969",
    "APOAPSIS": "20335.322",
    "PERIAPSIS": "20028.711",
    "OBJECT_TYPE": "PAYLOAD",
    "RCS_SIZE": "LARGE",
    "COUNTRY_CODE": "US",
    "LAUNCH_DATE": "2019-08-22",
    "SITE": "AFETR",
    "DECAY_DATE": null,
    "FILE": "4895669",
    "GP_ID": "303303988",
    "TLE_LINE0": "0 NAVSTAR 78 (USA 293)",
    "TLE_LINE1": "1 44506U 19056A   25327.47672714 -.00000067  00000-0  00000+0 0  9990",
    "TLE_LINE2": "2 44506  55.7286 339.3184 0057720 198.1122 333.3115  2.00565829 45948"
}